[{"OBJECT_NAME":"ONEWEB-0194","OBJECT_ID":"2021-031AD","EPOCH":"2026-03-09T17:16:48.460512","MEAN_MOTION":13.14502336,"ECCENTRICITY":0.00015189,"INCLINATION":87.8987,"RA_OF_ASC_NODE":309.5552,"ARG_OF_PERICENTER":89.5835,"MEAN_ANOMALY":270.5469,"EPHEMERIS_TYPE":0,"CLASSIFICATION_TYPE":"U","NORAD_CAT_ID":48237,"ELEMENT_SET_NO":999,"REV_AT_EPOCH":23529,"BSTAR":0.00037642329,"MEAN_MOTION_DOT":1.52e-6,"MEAN_MOTION_DDOT":0},{"OBJECT_NAME":"COSMOS 2251 DEB","OBJECT_ID":"1993-036AMC","EPOCH":"2026-03-08T09:07:10.094880","MEAN_MOTION":13.75587155,"ECCENTRICITY":0.03069032,"INCLINATION":73.9712,"RA_OF_ASC_NODE":205.3974,"ARG_OF_PERICENTER":100.0195,"MEAN_ANOMALY":294.6884,"EPHEMERIS_TYPE":0,"CLASSIFICATION_TYPE":"U","NORAD_CAT_ID":35585,"ELEMENT_SET_NO":999,"REV_AT_EPOCH":65241,"BSTAR":0.0026038262,"MEAN_MOTION_DOT":3.522e-5,"MEAN_MOTION_DDOT":0}]
